QIANFAN-126             
1 68653U 26075T   26116.83431874  .00000102  00000+0  37364-4 0  9991
2 68653  88.9898 326.4868 0015555 152.4612 207.7408 14.24951204  2742
HULIANWANG DIGUI-164    
1 68656U 26076A   26117.80515442 -.00000962  00000+0 -11029-2 0  9991
2 68656  86.4949  61.3677 0002913 112.4287 247.7182 13.70656822  2624
HULIANWANG DIGUI-165    
1 68657U 26076B   26117.80197959  .00000174  00000+0  17675-3 0  9998
2 68657  86.4991  61.3732 0002189 107.3254 252.8146 13.70827200  2623
HULIANWANG DIGUI-166    
1 68658U 26076C   26117.79860587 -.00000535  00000+0 -61869-3 0  9998
2 68658  86.4903  61.3524 0002918 112.5996 247.5473 13.71009965  2622
HULIANWANG DIGUI-167    
1 68659U 26076D   26117.79496427 -.00000056  00000+0 -81759-4 0  9996
2 68659  86.4992  61.3698 0002214 116.1619 243.9770 13.71173387  2624
HULIANWANG DIGUI-168    
1 68660U 26076E   26117.86413140 -.00000667  00000+0 -76373-3 0  9990
2 68660  86.4985  61.3344 0001852  85.7575 274.3797 13.71171242  2620
STARLINK-37195          
1 68662U 26077A   26117.56913259  .00161541  00000+0  10614-2 0  9998
2 68662  97.2851 348.8547 0001433  79.6812 280.4615 15.75237125  2607
STARLINK-37222          
1 68663U 26077B   26117.56807309  .00204949  00000+0  13383-2 0  9993
2 68663  97.2850 348.8563 0001570 108.2455 251.8982 15.75258301  2607
STARLINK-37153          
1 68664U 26077C   26116.99632375  .00195422  00000+0  12787-2 0  9991
2 68664  97.2850 348.2563 0001861  68.4396 291.7067 15.75237240  2512
STARLINK-37171          
1 68665U 26077D   26117.63019041  .00143139  00000+0  94262-3 0  9990
2 68665  97.2850 348.9238 0001807  79.1370 281.0099 15.75236571  2614
STARLINK-37109          
1 68666U 26077E   26117.62983721  .00124831  00000+0  82439-3 0  9996
2 68666  97.2850 348.9252 0001328 106.3836 253.7576 15.75224368  2616
STARLINK-36295          
1 68667U 26077F   26117.56560390  .00163983  00000+0  10766-2 0  9997
2 68667  97.2848 348.8587 0001595  81.7004 278.4442 15.75248932  2601
STARLINK-37221          
1 68668U 26077G   26117.62030894  .00183125  00000+0  12022-2 0  9993
2 68668  97.2851 348.9373 0001224  91.1049 269.0356 15.75194552  2612
STARLINK-37302          
1 68669U 26077H   26117.62630571  .00197200  00000+0  12880-2 0  9993
2 68669  97.2847 348.9291 0001905  78.1138 282.0341 15.75274051  2619
