[{"OBJECT_NAME":"QIANFAN-126","OBJECT_ID":"2026-075T","EPOCH":"2026-04-26T20:01:25.139136","MEAN_MOTION":14.24951204,"ECCENTRICITY":0.00155553,"INCLINATION":88.9898,"RA_OF_ASC_NODE":326.4868,"ARG_OF_PERICENTER":152.4612,"MEAN_ANOMALY":207.7408,"EPHEMERIS_TYPE":0,"CLASSIFICATION_TYPE":"U","NORAD_CAT_ID":68653,"ELEMENT_SET_NO":999,"REV_AT_EPOCH":274,"BSTAR":3.7363517e-5,"MEAN_MOTION_DOT":1.02e-6,"MEAN_MOTION_DDOT":0},{"OBJECT_NAME":"HULIANWANG DIGUI-164","OBJECT_ID":"2026-076A","EPOCH":"2026-04-27T19:19:25.341888","MEAN_MOTION":13.70656822,"ECCENTRICITY":0.0002913,"INCLINATION":86.4949,"RA_OF_ASC_NODE":61.3677,"ARG_OF_PERICENTER":112.4287,"MEAN_ANOMALY":247.7182,"EPHEMERIS_TYPE":0,"CLASSIFICATION_TYPE":"U","NORAD_CAT_ID":68656,"ELEMENT_SET_NO":999,"REV_AT_EPOCH":262,"BSTAR":-0.0011029,"MEAN_MOTION_DOT":-9.62e-6,"MEAN_MOTION_DDOT":0},{"OBJECT_NAME":"HULIANWANG DIGUI-165","OBJECT_ID":"2026-076B","EPOCH":"2026-04-27T19:14:51.036576","MEAN_MOTION":13.708272,"ECCENTRICITY":0.0002189,"INCLINATION":86.4991,"RA_OF_ASC_NODE":61.3732,"ARG_OF_PERICENTER":107.3254,"MEAN_ANOMALY":252.8146,"EPHEMERIS_TYPE":0,"CLASSIFICATION_TYPE":"U","NORAD_CAT_ID":68657,"ELEMENT_SET_NO":999,"REV_AT_EPOCH":262,"BSTAR":0.00017675,"MEAN_MOTION_DOT":1.74e-6,"MEAN_MOTION_DDOT":0},{"OBJECT_NAME":"HULIANWANG DIGUI-166","OBJECT_ID":"2026-076C","EPOCH":"2026-04-27T19:09:59.547168","MEAN_MOTION":13.71009965,"ECCENTRICITY":0.0002918,"INCLINATION":86.4903,"RA_OF_ASC_NODE":61.3524,"ARG_OF_PERICENTER":112.5996,"MEAN_ANOMALY":247.5473,"EPHEMERIS_TYPE":0,"CLASSIFICATION_TYPE":"U","NORAD_CAT_ID":68658,"ELEMENT_SET_NO":999,"REV_AT_EPOCH":262,"BSTAR":-0.00061869,"MEAN_MOTION_DOT":-5.35e-6,"MEAN_MOTION_DDOT":0},{"OBJECT_NAME":"HULIANWANG DIGUI-167","OBJECT_ID":"2026-076D","EPOCH":"2026-04-27T19:04:44.912928","MEAN_MOTION":13.71173387,"ECCENTRICITY":0.0002214,"INCLINATION":86.4992,"RA_OF_ASC_NODE":61.3698,"ARG_OF_PERICENTER":116.1619,"MEAN_ANOMALY":243.977,"EPHEMERIS_TYPE":0,"CLASSIFICATION_TYPE":"U","NORAD_CAT_ID":68659,"ELEMENT_SET_NO":999,"REV_AT_EPOCH":262,"BSTAR":-8.1759e-5,"MEAN_MOTION_DOT":-5.6e-7,"MEAN_MOTION_DDOT":0},{"OBJECT_NAME":"HULIANWANG DIGUI-168","OBJECT_ID":"2026-076E","EPOCH":"2026-04-27T20:44:20.952960","MEAN_MOTION":13.71171242,"ECCENTRICITY":0.0001852,"INCLINATION":86.4985,"RA_OF_ASC_NODE":61.3344,"ARG_OF_PERICENTER":85.7575,"MEAN_ANOMALY":274.3797,"EPHEMERIS_TYPE":0,"CLASSIFICATION_TYPE":"U","NORAD_CAT_ID":68660,"ELEMENT_SET_NO":999,"REV_AT_EPOCH":262,"BSTAR":-0.00076373,"MEAN_MOTION_DOT":-6.67e-6,"MEAN_MOTION_DDOT":0},{"OBJECT_NAME":"STARLINK-37195","OBJECT_ID":"2026-077A","EPOCH":"2026-04-27T13:39:33.055776","MEAN_MOTION":15.75237125,"ECCENTRICITY":0.0001433,"INCLINATION":97.2851,"RA_OF_ASC_NODE":348.8547,"ARG_OF_PERICENTER":79.6812,"MEAN_ANOMALY":280.4615,"EPHEMERIS_TYPE":0,"CLASSIFICATION_TYPE":"U","NORAD_CAT_ID":68662,"ELEMENT_SET_NO":999,"REV_AT_EPOCH":260,"BSTAR":0.0010614,"MEAN_MOTION_DOT":0.00161541,"MEAN_MOTION_DDOT":0},{"OBJECT_NAME":"STARLINK-37222","OBJECT_ID":"2026-077B","EPOCH":"2026-04-27T13:38:01.514976","MEAN_MOTION":15.75258301,"ECCENTRICITY":0.000157,"INCLINATION":97.285,"RA_OF_ASC_NODE":348.8563,"ARG_OF_PERICENTER":108.2455,"MEAN_ANOMALY":251.8982,"EPHEMERIS_TYPE":0,"CLASSIFICATION_TYPE":"U","NORAD_CAT_ID":68663,"ELEMENT_SET_NO":999,"REV_AT_EPOCH":260,"BSTAR":0.0013383,"MEAN_MOTION_DOT":0.00204949,"MEAN_MOTION_DDOT":0},{"OBJECT_NAME":"STARLINK-37153","OBJECT_ID":"2026-077C","EPOCH":"2026-04-26T23:54:42.372000","MEAN_MOTION":15.7523724,"ECCENTRICITY":0.0001861,"INCLINATION":97.285,"RA_OF_ASC_NODE":348.2563,"ARG_OF_PERICENTER":68.4396,"MEAN_ANOMALY":291.7067,"EPHEMERIS_TYPE":0,"CLASSIFICATION_TYPE":"U","NORAD_CAT_ID":68664,"ELEMENT_SET_NO":999,"REV_AT_EPOCH":251,"BSTAR":0.0012787,"MEAN_MOTION_DOT":0.00195422,"MEAN_MOTION_DDOT":0},{"OBJECT_NAME":"STARLINK-37171","OBJECT_ID":"2026-077D","EPOCH":"2026-04-27T15:07:28.451424","MEAN_MOTION":15.75236571,"ECCENTRICITY":0.0001807,"INCLINATION":97.285,"RA_OF_ASC_NODE":348.9238,"ARG_OF_PERICENTER":79.137,"MEAN_ANOMALY":281.0099,"EPHEMERIS_TYPE":0,"CLASSIFICATION_TYPE":"U","NORAD_CAT_ID":68665,"ELEMENT_SET_NO":999,"REV_AT_EPOCH":261,"BSTAR":0.00094262,"MEAN_MOTION_DOT":0.00143139,"MEAN_MOTION_DDOT":0},{"OBJECT_NAME":"STARLINK-37109","OBJECT_ID":"2026-077E","EPOCH":"2026-04-27T15:06:57.934944","MEAN_MOTION":15.75224368,"ECCENTRICITY":0.0001328,"INCLINATION":97.285,"RA_OF_ASC_NODE":348.9252,"ARG_OF_PERICENTER":106.3836,"MEAN_ANOMALY":253.7576,"EPHEMERIS_TYPE":0,"CLASSIFICATION_TYPE":"U","NORAD_CAT_ID":68666,"ELEMENT_SET_NO":999,"REV_AT_EPOCH":261,"BSTAR":0.00082439,"MEAN_MOTION_DOT":0.00124831,"MEAN_MOTION_DDOT":0},{"OBJECT_NAME":"STARLINK-36295","OBJECT_ID":"2026-077F","EPOCH":"2026-04-27T13:34:28.176960","MEAN_MOTION":15.75248932,"ECCENTRICITY":0.0001595,"INCLINATION":97.2848,"RA_OF_ASC_NODE":348.8587,"ARG_OF_PERICENTER":81.7004,"MEAN_ANOMALY":278.4442,"EPHEMERIS_TYPE":0,"CLASSIFICATION_TYPE":"U","NORAD_CAT_ID":68667,"ELEMENT_SET_NO":999,"REV_AT_EPOCH":260,"BSTAR":0.0010766,"MEAN_MOTION_DOT":0.00163983,"MEAN_MOTION_DDOT":0},{"OBJECT_NAME":"STARLINK-37221","OBJECT_ID":"2026-077G","EPOCH":"2026-04-27T14:53:14.692416","MEAN_MOTION":15.75194552,"ECCENTRICITY":0.0001224,"INCLINATION":97.2851,"RA_OF_ASC_NODE":348.9373,"ARG_OF_PERICENTER":91.1049,"MEAN_ANOMALY":269.0356,"EPHEMERIS_TYPE":0,"CLASSIFICATION_TYPE":"U","NORAD_CAT_ID":68668,"ELEMENT_SET_NO":999,"REV_AT_EPOCH":261,"BSTAR":0.0012022,"MEAN_MOTION_DOT":0.00183125,"MEAN_MOTION_DDOT":0},{"OBJECT_NAME":"STARLINK-37302","OBJECT_ID":"2026-077H","EPOCH":"2026-04-27T15:01:52.813344","MEAN_MOTION":15.75274051,"ECCENTRICITY":0.0001905,"INCLINATION":97.2847,"RA_OF_ASC_NODE":348.9291,"ARG_OF_PERICENTER":78.1138,"MEAN_ANOMALY":282.0341,"EPHEMERIS_TYPE":0,"CLASSIFICATION_TYPE":"U","NORAD_CAT_ID":68669,"ELEMENT_SET_NO":999,"REV_AT_EPOCH":261,"BSTAR":0.001288,"MEAN_MOTION_DOT":0.001972,"MEAN_MOTION_DDOT":0}]
